CELESTIS-02             
1 25160U 98007D   22044.56223910 -.00000003  00000+0  56660-4 0  9998
2 25160 107.9834  17.3012 0063964 320.6783 139.2801 14.21596271245259
CELESTIS-03             
1 26034U 99070C   22044.46840379  .00014993  00000+0  81379-3 0  9999
2 26034  98.3100  38.5822 0011107 182.0729 178.0456 15.14606436202286
